"","GU_NM","CATEGORY","PLACE_NAME","INSTL_DIV","LAT","LON"
"1","강남구","주요거리","과학기술원앞","SKT",37.5010122661703,127.030187419791
"2","강남구","주요거리","국기원","SKT",37.502031451095,127.029605402805
"3","서초구","공원","반포한강공원","KT",37.5070606319459,126.991074126567
"4","강남구","주요거리","선릉역주변","SKT",37.5054166219331,127.048420555981
"5","강남구","주요거리","선릉역주변","SKT",37.5044510909784,127.047567186116
"6","강남구","주요거리","선릉역주변","SKT",37.5037663902328,127.047409549259
"7","강남구","주요거리","선릉역주변","SKT",37.5046293235498,127.050148163451
"8","강남구","주요거리","역삼역주변","SKT",37.500450502132,127.035035374625
"9","강남구","주요거리","역삼역주변","SKT",37.5000096522095,127.035894649838
"10","강남구","주요거리","청담패션거리","SKT",37.5268645127028,127.040139712596
"11","강남구","주요거리","청담패션거리","SKT",37.5264238565159,127.040334059213
"12","강남구","주요거리","청담패션거리","SKT",37.525708643666,127.039795182909
"13","강남구","주요거리","청담패션거리","SKT",37.5250049408629,127.039854766607
"14","강남구","주요거리","청담패션거리","SKT",37.5246960176087,127.039495990051
"15","강남구","주요거리","청담패션거리","SKT",37.5238257890852,127.039075835432
"16","광진구","주요거리","건대주변","LGU+",37.5476589569115,127.067301715778
"17","광진구","주요거리","건대주변","LGU+",37.5475023254465,127.070153240343
"18","광진구","주요거리","건대주변","LGU+",37.5475023254465,127.070153240343
"19","광진구","주요거리","건대주변","LGU+",37.5471783664007,127.07247386544
"20","광진구","주요거리","건대주변","LGU+",37.5471783664007,127.07247386544
"21","광진구","주요거리","건대주변","LGU+",37.5424335226359,127.065050918079
"22","광진구","주요거리","건대주변","LGU+",37.542788039708,127.06906367404
"23","광진구","주요거리","건대주변","LGU+",37.5416678170405,127.069541275819
"24","광진구","주요거리","건대주변","LGU+",37.5416678170405,127.069541275819
"25","광진구","주요거리","건대주변","LGU+",37.5427517559568,127.070994050259
"26","광진구","주요거리","건대주변","LGU+",37.5405345676585,127.070707939477
"27","광진구","주요거리","건대주변","LGU+",37.5407759779785,127.066142518202
"28","광진구","주요거리","건대주변","LGU+",37.5396415223474,127.069450005848
"29","노원구","주요거리","노원문화의거리","SKT",37.6553973655063,127.062809182768
"30","노원구","주요거리","노원문화의거리","SKT",37.6551841102272,127.063969446489
"31","노원구","주요거리","노원문화의거리","SKT",37.6551841102272,127.063969446489
"32","노원구","주요거리","노원문화의거리","SKT",37.6558582460653,127.065247204012
"33","노원구","주요거리","노원역사거리","SKT",37.6541548568894,127.059435644203
"34","노원구","주요거리","노원역사거리","SKT",37.6535046462103,127.060619340809
"35","노원구","주요거리","노원역사거리","SKT",37.6535046462103,127.060619340809
"36","노원구","주요거리","노원역사거리","SKT",37.6547079256041,127.063162172362
"37","노원구","주요거리","노원은행사거리","SKT",37.6504599624147,127.076567418109
"38","노원구","주요거리","노원은행사거리","SKT",37.6504599624147,127.076567418109
"39","노원구","공원","중계근린공원","SKT",37.6388959434891,127.065946156108
"40","노원구","공원","중계근린공원","SKT",37.6390210292711,127.066215920646
"41","노원구","공원","중계근린공원","SKT",37.6390686508523,127.066448228038
"42","노원구","공원","중계근린공원","SKT",37.6406002370307,127.064987991336
"43","노원구","공원","중계근린공원","SKT",37.6407432410893,127.065444725408
"44","노원구","공원","중계근린공원","SKT",37.6416134335782,127.067327466999
"45","마포구","공원","난지도 캠핑장","LGU+",37.5701666188585,126.872470438099
"46","마포구","공원","난지도 캠핑장","LGU+",37.5701666188585,126.872470438099
"47","마포구","공원","난지도 캠핑장","LGU+",37.5701666188585,126.872470438099
"48","마포구","주요거리","홍대주변","LGU+",37.5550881341935,126.92173195043
"49","마포구","주요거리","홍대주변","LGU+",37.5550881341935,126.92173195043
"50","마포구","주요거리","홍대주변","LGU+",37.5542614215332,126.923724634116
"51","송파구","공원","백제초기적성총","KT",37.5024402477822,127.102552991812
"52","영등포구","공원","여의한강공원","KT",37.5272461556871,126.934767687542
"53","용산구","주요거리","이태원거리","LGU+",37.5344286033032,126.991163641911
"54","용산구","주요거리","이태원거리","LGU+",37.5344286033032,126.991163641911
"55","용산구","주요거리","이태원거리","LGU+",37.5344459448067,126.994947095468
"56","용산구","주요거리","이태원거리","LGU+",37.5330538655641,126.994232147671
"57","용산구","주요거리","이태원거리","LGU+",37.5360570421521,126.999874410105
"58","용산구","주요거리","이태원거리","LGU+",37.5360570421521,126.999874410105
"59","종로구","주요거리","광화문거리","KT",37.5719263030569,126.982708961245
"60","종로구","주요거리","광화문거리","KT",37.5729639780704,126.987740455104
"61","종로구","주요거리","광화문거리","KT",37.5721158688441,126.974697854264
"62","종로구","주요거리","광화문거리","KT",37.5734403897966,126.98582389117
"63","종로구","광장","광화문광장","LGU+",37.5719288187899,126.97642192752
"64","종로구","광장","광화문광장","LGU+",37.5719288187899,126.97642192752
"65","종로구","주요거리","대학로","LGU+",37.5818042500418,127.002148787379
"66","종로구","주요거리","대학로","LGU+",37.5818042500418,127.002148787379
"67","종로구","주요거리","대학로","LGU+",37.5833719869869,127.001632569219
"68","중구","주요거리","명동거리(종로구)","LGU+",37.5637470159966,126.98238600828
"69","중구","주요거리","명동거리(종로구)","LGU+",37.5637470159966,126.98238600828
"70","중구","주요거리","명동거리(종로구)","LGU+",37.5637470159966,126.98238600828
"71","중구","주요거리","명동거리(종로구)","LGU+",37.5634723692154,126.983472653706
"72","중구","주요거리","명동거리(종로구)","LGU+",37.5634723692154,126.983472653706
"73","중구","주요거리","명동거리(종로구)","LGU+",37.563777140098,126.985239419175
"74","중구","주요거리","명동거리(종로구)","LGU+",37.563777140098,126.985239419175
"75","중구","주요거리","명동거리(종로구)","LGU+",37.5633238556139,126.984587561441
"76","중구","주요거리","명동거리(종로구)","LGU+",37.5633238556139,126.984587561441
"77","중구","주요거리","명동거리(종로구)","LGU+",37.5607254627184,126.985224175837
"78","중구","주요거리","명동거리(종로구)","LGU+",37.5607254627184,126.985224175837
"79","중구","주요거리","명동거리(종로구)","LGU+",37.5636518182971,126.984587493877
"80","중구","주요거리","명동거리(종로구)","LGU+",37.5636518182971,126.984587493877
"81","중구","공원","청계천(광장)","KT",37.5691134259969,126.977537776223
"82","종로구","공원","청계천(광장)","KT",37.5692901446164,126.97819651397
"83","중구","공원","청계천(종로구)","KT",37.5689092328905,126.979361388404
"84","중구","공원","청계천(종로구)","KT",37.5687502670318,126.982522926215
"85","중구","공원","청계천(종로구)","KT",37.56882117328,126.980770672885
"86","종로구","공원","청계천(종로구)","KT",37.5690951506006,126.981234697867
"87","중구","공원","청계천(종로구)","KT",37.568875126349,126.980126587029
"88","중구","공원","청계천(종로구)","KT",37.5683970940801,126.977326320526
"89","종로구","주요거리","청계천(종로구)","LGU+",37.5692264743434,126.979888785853
"90","종로구","주요거리","청계천(종로구)","LGU+",37.5692264743434,126.979888785853
"91","종로구","주요거리","청계천(종로구)","LGU+",37.5687379283836,126.9844936273
"92","종로구","주요거리","청계천(종로구)","LGU+",37.5687379283836,126.9844936273
"93","종로구","주요거리","청계천(종로구)","LGU+",37.5685002302965,126.985803320791
"94","종로구","주요거리","청계천(종로구)","LGU+",37.5685002302965,126.985803320791
"95","중구","주요거리","명동거리(중구)","SKT",37.5636327422868,126.983442058128
"96","중구","주요거리","명동거리(중구)","SKT",37.5636507421268,126.983299440079
"97","중구","주요거리","명동거리(중구)","SKT",37.5639068779006,126.985194119116
"98","중구","주요거리","명동거리(중구)","SKT",37.5638708248001,126.985088863179
"99","중구","주요거리","명동거리(중구)","SKT",37.562881564465,126.985358439701
"100","중구","주요거리","명동거리(중구)","SKT",37.5628103923278,126.985411650342
"101","중구","주요거리","청계천(중구)","SKT",37.5679780279326,126.989371241645
"102","중구","주요거리","청계천(중구)","SKT",37.5679780205672,126.98928974318
"103","중구","주요거리","청계천(중구)","SKT",37.5681557381639,126.992099157655
"104","중구","주요거리","청계천(중구)","SKT",37.5681683610412,126.992233855519
"105","중구","주요거리","충무로거리","SKT",37.5614768516051,126.984889007315
"106","중구","주요거리","충무로거리","SKT",37.5614939800793,126.984963704308
"107","중구","주요거리","충무로거리","SKT",37.5613866457402,126.984080903618
"108","중구","주요거리","충무로거리","SKT",37.5613929688324,126.984200875564
"109","종로구","공원","사직공원","SKT",37.5761869440478,126.968763416641
"110","종로구","공원","사직공원","SKT",37.5761869440478,126.968763416641
"111","종로구","공원","종묘공원","LGU+",37.5712318519897,126.994067332701
"112","종로구","공원","종묘공원","LGU+",37.5712318519897,126.994067332701
"113","종로구","공원","종묘공원","LGU+",37.5712318519897,126.994067332701
"114","중구","주요거리","동대문 거리","LGU+",37.5694935585656,127.009987160282
"115","중구","주요거리","동대문 거리","LGU+",37.5694935585656,127.009987160282
"116","중구","주요거리","동대문 거리","LGU+",37.5685528617414,127.010644687081
"117","중구","주요거리","동대문 거리","LGU+",37.5685528617414,127.010644687081
"118","중구","주요거리","동대문 거리","LGU+",37.5679175189912,127.012105908264
"119","중구","주요거리","동대문 거리","LGU+",37.5679175189912,127.012105908264
"120","중구","주요거리","동대문 거리","LGU+",37.56791788207,127.00779894422
"121","중구","주요거리","동대문 거리","LGU+",37.56791788207,127.00779894422
"122","중구","광장","서울역","LGU+",37.5565811772933,126.971974456796
"123","중구","광장","서울역","LGU+",37.5565811772933,126.971974456796
"124","중구","주요시장","남대문시장","LGU+",37.5609541303729,126.978207997937
"125","중구","주요시장","남대문시장","LGU+",37.5604496636564,126.978709536352
"126","중구","주요시장","남대문시장","LGU+",37.5607395247271,126.977313927689
"127","중구","주요시장","남대문시장","LGU+",37.5596211128702,126.975926684043
"128","중구","주요시장","남대문시장","LGU+",37.5612644470004,126.980336863898
"129","중구","주요시장","남대문시장","LGU+",37.5578598994844,126.977113345671
"130","용산구","공원","이촌한강공원","LGU+",37.5178630843535,126.970723168805
"131","용산구","공원","이촌한강공원","LGU+",37.5178630843535,126.970723168805
"132","용산구","공원","이촌한강공원","LGU+",37.5178630843535,126.970723168805
"133","용산구","공원","이촌한강공원","LGU+",37.51705536447,126.96907200025
"134","용산구","공원","이촌한강공원","LGU+",37.51705536447,126.96907200025
"135","용산구","공원","이촌한강공원","LGU+",37.51705536447,126.96907200025
"136","용산구","공원","효창공원","LGU+",37.5449150832372,126.962368364048
"137","용산구","공원","효창공원","LGU+",37.5450908982504,126.962747353949
"138","용산구","공원","효창공원","LGU+",37.5467223361132,126.961896709295
"139","용산구","공원","효창공원","LGU+",37.5463023591614,126.961552918103
"140","용산구","공원","효창공원","LGU+",37.5449150832372,126.962368364048
"141","성동구","공원","살곶이체육공원","SKT",37.555718772393,127.050229912412
"142","성동구","공원","살곶이체육공원","SKT",37.5542836767153,127.047587524319
"143","성동구","공원","살곶이체육공원","SKT",37.5542836767153,127.047587524319
"144","성동구","공원","살곶이체육공원","SKT",37.5548884794132,127.049216461222
"145","성동구","공원","살곶이체육공원","SKT",37.5548884794132,127.049216461222
"146","성동구","주요거리","한양대주변","SKT",37.5601633043261,127.041141107813
"147","성동구","주요거리","한양대주변","SKT",37.5601633043261,127.041141107813
"148","성동구","주요거리","한양대주변","SKT",37.5612973902764,127.039285543326
"149","성동구","주요거리","한양대주변","SKT",37.5612973902764,127.039285543326
"150","성동구","주요거리","한양대주변","SKT",37.5589560798073,127.040820148441
"151","성동구","주요거리","한양대주변","SKT",37.5589560798073,127.040820148441
"152","동대문구","공원","우산각어린이공원","SKT",37.5798330759069,127.040731918436
"153","동대문구","공원","우산각어린이공원","SKT",37.5798330759069,127.040731918436
"154","동대문구","공원","우산각어린이공원","SKT",37.5727657527473,127.024026606582
"155","동대문구","공원","우산각어린이공원","SKT",37.5727657527473,127.024026606582
"156","동대문구","공원","우산각어린이공원","SKT",37.5963518907106,127.061498078311
"157","동대문구","주요시장","청량리시장","SKT",37.5727657527473,127.024026606582
"158","동대문구","주요시장","청량리시장","SKT",37.5737666539432,127.024532936936
"159","동대문구","주요시장","청량리시장","SKT",37.5737666539432,127.024532936936
"160","동대문구","주요시장","청량리시장","SKT",37.5813653215722,127.044194793627
"161","동대문구","주요시장","청량리시장","SKT",37.5813653215722,127.044194793627
"162","동대문구","주요시장","서울악령시","SKT",37.579848762218,127.042244416265
"163","동대문구","주요시장","서울악령시","SKT",37.579848762218,127.042244416265
"164","동대문구","주요시장","서울악령시","SKT",37.579848762218,127.042244416265
"165","동대문구","주요시장","서울악령시","SKT",37.5791348597465,127.03786281706
"166","동대문구","광장","동대문구청","SKT",37.5744491278992,127.039574324393
"167","동대문구","문화시설","동대문문화회관","SKT",37.5718031396511,127.063747508723
"168","동대문구","문화시설","용두교육장","SKT",37.5786749805678,127.02972062879
"169","동대문구","문화시설","용두교육장","SKT",37.5786749805678,127.02972062879
"170","동대문구","문화시설","전농교육장","SKT",37.5779906330228,127.047707890622
"171","동대문구","문화시설","장안교육장","SKT",37.567942783619,127.066277461093
"172","동대문구","주요거리","외국어대 거리","SKT",37.5791348597465,127.03786281706
"173","동대문구","주요거리","외국어대 거리","SKT",37.5787729956832,127.036801868785
"174","동대문구","주요거리","외국어대 거리","SKT",37.5787729956832,127.036801868785
"175","동대문구","주요시장","경동시장","SKT",37.5963256010919,127.061806056486
"176","동대문구","주요시장","경동시장","SKT",37.5963518907106,127.061498078311
"177","성북구","공원","개운산생태공원","LGU+",37.595215035417,127.027535004209
"178","성북구","공원","개운산생태공원","LGU+",37.5960973020822,127.026681538217
"179","성북구","공원","개운산생태공원","LGU+",37.5972678343488,127.026034242449
"180","성북구","공원","개운산생태공원","LGU+",37.599920979453,127.027245709848
"181","강북구","공원","우이천","SKT",37.6448252826741,127.027274566945
"182","강북구","공원","우이천","SKT",37.6420806928425,127.031651655235
"183","강북구","공원","우이천","SKT",37.6409784562714,127.032868061568
"184","강북구","공원","우이천","SKT",37.6393771931712,127.033625336781
"185","강북구","공원","우이천","SKT",37.6328434070433,127.038966311257
"186","강북구","공원","우이천","SKT",37.6244115787678,127.049625883719
"187","도봉구","공원","방학천","SKT",37.6597612982998,127.032696143409
"188","도봉구","공원","방학천","SKT",37.6597612982998,127.032696143409
"189","도봉구","주요거리","덕성여대","SKT",37.6515435742237,127.013668541564
"190","도봉구","주요거리","덕성여대","SKT",37.6515435742237,127.013668541564
"191","도봉구","광장","도봉산","SKT",37.6869919888388,127.040195242593
"192","도봉구","광장","도봉산","SKT",37.6869919888388,127.040195242593
"193","도봉구","문화시설","문화정보센터","SKT",37.6444895422774,127.044072401
"194","도봉구","문화시설","문화정보센터","SKT",37.6444895422774,127.044072401
"195","도봉구","문화시설","문화정보센터","SKT",37.6444895422774,127.044072401
"196","도봉구","문화시설","문화정보센터","SKT",37.6444895422774,127.044072401
"197","도봉구","공원","창동운동장","SKT",37.658030379463,127.050875603616
"198","도봉구","공원","창동운동장","SKT",37.658030379463,127.050875603616
"199","노원구","공원","각심어린이공원","SKT",37.6296759816973,127.051864512937
"200","노원구","공원","각심어린이공원","SKT",37.6296759816973,127.051864512937
"201","노원구","공원","당현천 주변","LGU+",37.6397350003982,127.060451795574
"202","노원구","공원","당현천 주변","LGU+",37.6397350003982,127.060451795574
"203","노원구","공원","당현천 주변","LGU+",37.6382832944458,127.059106894713
"204","노원구","공원","당현천 주변","LGU+",37.646532133614,127.063669682191
"205","노원구","공원","당현천 주변","LGU+",37.6501423970147,127.068454736686
"206","노원구","공원","당현천 주변","LGU+",37.6551722641335,127.072016610885
"207","노원구","공원","당현천 주변","LGU+",37.6551722641335,127.072016610885
"208","노원구","주요거리","광운대학교 앞","SKT",37.6230518913609,127.061332029101
"209","노원구","주요거리","광운대학교 앞","SKT",37.6228993092439,127.060194617518
"210","노원구","주요거리","광운대학교 앞","SKT",37.6228993092439,127.060194617518
"211","노원구","주요거리","노원역 일대 ","SKT",37.6567922837087,127.062436378735
"212","노원구","주요거리","노원역 일대 ","SKT",37.6567922837087,127.062436378735
"213","노원구","주요시장","공릉 도깨비시장","SKT",37.6228133662107,127.074963393079
"214","노원구","주요거리","노원문화의거리","LGU+",37.6557912407962,127.064211350599
"215","노원구","주요거리","노원문화의거리","LGU+",37.6557912407962,127.064211350599
"216","은평구","공원","갈마어린이공원","LGU+",37.6146533499942,126.916013207627
"217","은평구","공원","박석고개공원","LGU+",37.6252155672378,126.91849799487
"218","은평구","공원","응암9구역어린이공원(가칭)","LGU+",37.586534596588,126.922998806318
"219","은평구","공원","역말어린이공원","LGU+",37.6068015417862,126.913942746816
"220","은평구","공원","분토골어린이공원","LGU+",37.5868798489684,126.911666170719
"221","은평구","광장","구파발역앞광장","LGU+",37.6369188091551,126.918987117883
"222","은평구","광장","구파발역앞광장","LGU+",37.6369188091551,126.918987117883
"223","은평구","공원","불광어린이공원","LGU+",37.6163083873132,126.931202516582
"224","서대문구","광장","서대문구청옥상","LGU+",37.5789166492344,126.936546430541
"225","서대문구","광장","서대문구청옥상","LGU+",37.5789166492344,126.936546430541
"226","서대문구","공원","홍제천주변","LGU+",37.5817185854497,126.937951291369
"227","서대문구","공원","홍제천주변","LGU+",37.5817185854497,126.937951291369
"228","서대문구","공원","안산공원주변","LGU+",37.5795049424382,126.938138792407
"229","서대문구","공원","안산공원주변","LGU+",37.5795049424382,126.938138792407
"230","서대문구","공원","안산공원주변","LGU+",37.5804489813945,126.939486356439
"231","서대문구","공원","안산공원주변","LGU+",37.5804489813945,126.939486356439
"232","양천구","공원","오목근린공원","SKT",37.5274114066862,126.873167743014
"233","양천구","공원","갈산근린공원","SKT",37.508188755085,126.868447731511
"234","양천구","공원","양지근린공원","SKT",37.5227536313075,126.831038122462
"235","양천구","주요거리","목동로데오 거리 ","LGU+",37.5274166667379,126.861795814146
"236","양천구","주요거리","목동로데오 거리 ","LGU+",37.5274166667379,126.861795814146
"237","강서구","주요거리","김포공항(국내선)","SKT",37.5591762078474,126.804025004129
"238","강서구","주요거리","김포공항(국내선)","SKT",37.5591762078474,126.804025004129
"239","강서구","주요거리","김포공항(국제선)","SKT",37.5591762078474,126.804025004129
"240","강서구","주요거리","김포공항(국제선)","SKT",37.5651546605001,126.801001941934
"241","강서구","주요거리","까치산역","LGU+",37.5326837802275,126.846370926235
"242","강서구","주요거리","까치산역","LGU+",37.5317033235689,126.846935230013
"243","강서구","주요거리","까치산역","LGU+",37.529693765127,126.848077467916
"244","강서구","주요거리","화곡역","SKT",37.5417127944028,126.840999157653
"245","강서구","주요거리","화곡역","SKT",37.5415859333269,126.839798881266
"246","강서구","주요거리","화곡역","SKT",37.5417127944028,126.840999157653
"247","강서구","주요거리","화곡역","SKT",37.5415859333269,126.839798881266
"248","구로구","공원","고척근린공원","SKT",37.5054247344298,126.851921088604
"249","구로구","공원","고척근린공원","SKT",37.5054247344298,126.851921088604
"250","구로구","공원","고척근린공원","SKT",37.5042994740219,126.852717245072
"251","구로구","공원","고척근린공원","SKT",37.5053303729273,126.853562320632
"252","구로구","공원","거리공원","SKT",37.4985848980815,126.89244137648
"253","구로구","공원","거리공원","SKT",37.4985848980815,126.89244137648
"254","구로구","공원","거리공원","SKT",37.5003234361557,126.891018471662
"255","구로구","공원","거리공원","SKT",37.5017549452682,126.889843624806
"256","구로구","공원","거리공원","SKT",37.5031864529351,126.888680042473
"257","구로구","주요거리","구로디지털단지","LGU+",37.4858032925572,126.892527544354
"258","구로구","주요거리","구로디지털단지","LGU+",37.4858032925572,126.892527544354
"259","구로구","주요거리","구로디지털단지","LGU+",37.4856757521178,126.895997783226
"260","구로구","주요거리","구로디지털단지","LGU+",37.4856757521178,126.895997783226
"261","구로구","주요거리","구로디지털단지","LGU+",37.4838839688046,126.898439085
"262","구로구","주요거리","구로디지털단지","LGU+",37.4838839688046,126.898439085
"263","영등포구","공원","선유도공원","LGU+",37.5424124312373,126.901824508819
"264","영등포구","공원","선유도공원","LGU+",37.5424124312373,126.901824508819
"265","영등포구","공원","선유도공원","LGU+",37.543335321684,126.901065160111
"266","영등포구","공원","선유도공원","LGU+",37.543335321684,126.901065160111
"267","영등포구","공원","여의도공원","LGU+",37.5340734166298,126.922011878859
"268","영등포구","공원","여의도공원","LGU+",37.5340734166298,126.922011878859
"269","영등포구","공원","여의도공원","LGU+",37.5263022258323,126.933724326087
"270","영등포구","공원","여의도공원","LGU+",37.5263022258323,126.933724326087
"271","영등포구","공원","여의도공원","LGU+",37.5247509085214,126.935731439337
"272","영등포구","공원","여의도공원","LGU+",37.5247509085214,126.935731439337
"273","영등포구","공원","여의도공원","LGU+",37.5247509085214,126.935731439337
"274","영등포구","공원","여의도공원","LGU+",37.5308640833127,126.927727466222
"275","영등포구","공원","여의도공원","LGU+",37.5308640833127,126.927727466222
"276","영등포구","공원","여의도공원","LGU+",37.5308640833127,126.927727466222
"277","송파구","문화시설","송파여성문화회관","LGU+",37.5059864289609,127.109765616329
"278","송파구","주요거리","문정동 로데오","LGU+",37.5059864289609,127.109765616329
"279","송파구","주요거리","문정동 로데오","LGU+",37.4901551055832,127.124076927982
"280","송파구","주요거리","잠실2동 주민센터 옥상","LGU+",37.5119013039156,127.088560960298
"281","송파구","문화시설","삼전동구민회관","LGU+",37.5027322440639,127.092653168751
"282","송파구","공원","석촌호수 주변 ","LGU+",37.5131511901931,127.106844312478
"283","송파구","공원","석촌호수 주변 ","LGU+",37.5131511901931,127.106844312478
"284","송파구","공원","석촌호수 주변 ","LGU+",37.5115850488829,127.107061507643
"285","송파구","공원","석촌호수 주변 ","LGU+",37.5115850488829,127.107061507643
"286","송파구","공원","석촌호수 주변 ","LGU+",37.5100331210253,127.103464823448
"287","송파구","공원","석촌호수 주변 ","LGU+",37.5100331210253,127.103464823448
"288","송파구","공원","석촌호수 주변 ","LGU+",37.5083750491169,127.102688915825
"289","송파구","공원","석촌호수 주변 ","LGU+",37.5083750491169,127.102688915825
"290","송파구","공원","석촌호수 주변 ","LGU+",37.5102621626336,127.101169106977
"291","송파구","공원","석촌호수 주변 ","LGU+",37.5102621626336,127.101169106977
"292","송파구","공원","석촌호수 주변 ","LGU+",37.5102621626336,127.101169106977
"293","송파구","공원","석촌호수 주변 ","LGU+",37.5105356198468,127.101690892268
"294","동대문구","주요시장","풍물시장","SKT",37.5727501063378,127.025594415105
"295","동대문구","주요시장","풍물시장","SKT",37.5727501063378,127.025594415105
"296","동대문구","주요시장","풍물시장","SKT",37.5727501063378,127.025594415105
"297","동대문구","주요시장","풍물시장","SKT",37.5727501063378,127.025594415105
"298","동대문구","주요시장","풍물시장","SKT",37.5727501063378,127.025594415105
"299","동대문구","주요시장","풍물시장","SKT",37.5727501063378,127.025594415105
"300","동대문구","주요시장","풍물시장","SKT",37.5727501063378,127.025594415105
"301","동대문구","주요시장","풍물시장","SKT",37.5727501063378,127.025594415105
"302","동대문구","주요시장","풍물시장","SKT",37.5727501063378,127.025594415105
"303","동대문구","주요시장","풍물시장","SKT",37.5727501063378,127.025594415105
"304","동대문구","주요시장","풍물시장","SKT",37.5727501063378,127.025594415105
"305","동대문구","주요시장","풍물시장","SKT",37.5727501063378,127.025594415105
"306","동대문구","주요시장","풍물시장","SKT",37.5727501063378,127.025594415105
"307","동대문구","주요시장","풍물시장","SKT",37.5727501063378,127.025594415105
"308","동대문구","주요시장","풍물시장","SKT",37.5727501063378,127.025594415105
"309","종로구","광장","서울역사박물관 광장","LGU+",37.5706481174773,126.970673088509
"310","종로구","광장","서울역사박물관 광장","LGU+",37.5706481174773,126.970673088509
"311","종로구","주요거리","대학로","LGU+",37.5836936452905,127.00134047869
"312","종로구","주요거리","대학로","LGU+",37.5836936452905,127.00134047869
"313","종로구","주요거리","대학로","LGU+",37.5799986539538,127.002388741769
"314","종로구","주요거리","대학로","LGU+",37.5799986539538,127.002388741769
"315","종로구","주요거리","삼청동 카페골목","LGU+",37.5843266859897,126.982710622178
"316","종로구","주요거리","삼청동 카페골목","LGU+",37.5843266859897,126.982710622178
"317","종로구","주요거리","삼청동 카페골목","LGU+",37.5843265740054,126.981962257419
"318","종로구","주요거리","삼청동 카페골목","LGU+",37.5843265740054,126.981962257419
"319","종로구","주요거리","인사동","LGU+",37.5729530113627,126.986331118851
"320","종로구","주요거리","인사동","LGU+",37.5729530113627,126.986331118851
"321","종로구","주요거리","인사동","LGU+",37.5729953372804,126.986152255262
"322","종로구","주요거리","종로거리","LGU+",37.5703475061429,126.987915205664
"323","종로구","주요거리","종로거리","LGU+",37.5703475061429,126.987915205664
"324","종로구","주요거리","대학로","LGU+",37.5803293096164,127.002801972523
"325","종로구","주요거리","대학로","LGU+",37.5803527184082,127.003446144254
"326","종로구","주요거리","대학로","LGU+",37.5803527184082,127.003446144254
"327","종로구","주요거리","대학로","LGU+",37.5800608217233,127.002428367466
"328","종로구","주요거리","대학로","LGU+",37.5796679971465,127.001956268968
"329","종로구","주요거리","대학로","LGU+",37.5801903709195,127.007188885837
"330","종로구","주요거리","대학로","LGU+",37.5801903709195,127.007188885837
"331","종로구","광장","서울역사박물관 광장","LGU+",37.5714250032543,126.968078296561
"332","종로구","관광명소","청계?","KT",37.5691200589075,126.979321712318
"333","중구","관광명소","청계?","KT",37.5687746121127,126.982646301463
"334","중구","관광명소","청계?","KT",37.5688701395103,126.982795694936
"335","중구","관광명소","청계?","KT",37.5687629502286,126.982997204023
"336","종로구","관광명소","청계?","KT",37.5688244205362,126.984467574843
"337","중구","관광명소","청계?","KT",37.5683533548914,126.9856946835
"338","중구","관광명소","청계?","KT",37.5681148132642,126.987664278988
"339","중구","관광명소","청계?","KT",37.567918559562,126.989341820117
"340","중구","관광명소","청계?","KT",37.5679528463624,126.989898721231
"341","중구","관광명소","청계?","KT",37.5680033614335,126.99061748585
"342","종로구","관광명소","청계?","KT",37.5683539771248,126.992402493644
"343","종로구","관광명소","청계?","KT",37.5687189620436,126.993800395506
"344","종로구","관광명소","청계?","KT",37.5687685533557,126.994540676958
"345","중구","관광명소","청계?","KT",37.568439705901,126.994897258951
"346","중구","관광명소","청계?","KT",37.568549647094,126.995376058602
"347","종로구","관광명소","청계?","KT",37.5688758323797,126.996061992099
"348","종로구","관광명소","청계?","KT",37.5688812864115,126.997960249854
"349","중구","관광명소","청계?","KT",37.5687263207901,126.998316813439
"350","중구","관광명소","청계?","KT",37.5687479469543,126.998484339303
"351","중구","관광명소","청계?","KT",37.5697008061768,127.009764193959
"352","중구","관광명소","청계?","KT",37.5710223349037,127.019045382038
"353","성동구","관광명소","청계?","KT",37.5720540051389,127.037671322604
"354","성동구","관광명소","청계?","KT",37.572590861858,127.038096090353
"355","중구","광장","서울광장","KT",37.5656376858255,126.97918345276
"356","중구","광장","서울광장","KT",37.5654070082172,126.979055614032
"357","중구","광장","서울광장","KT",37.5651781284113,126.97890513797
"358","중구","관광명소","남산골한옥마을","KT",37.5595675102905,126.993214883555
"359","중구","관광명소","남산골한옥마을","KT",37.5592954119098,126.993262443484
"360","중구","관광명소","남산골한옥마을","KT",37.5592764954022,126.993340538801
"361","중구","관광명소","남산골한옥마을","KT",37.5588809411182,126.993053100483
"362","용산구","광장","서울역광장","LGU+",37.554541517318,126.972824010524
"363","용산구","광장","서울역광장","LGU+",37.554541517318,126.972824010524
"364","중구","광장","서울광장","LGU+",37.5654015883599,126.978977515543
"365","중구","광장","서울광장","LGU+",37.5654015883599,126.978977515543
"366","중구","광장","서울광장","LGU+",37.5656755156645,126.979115528936
"367","중구","광장","서울광장","LGU+",37.5661044218508,126.979297644254
"368","중구","관광명소","덕수궁 정문","LGU+",37.5647227388786,126.976842992188
"369","중구","관광명소","덕수궁 정문","LGU+",37.5647227388786,126.976842992188
"370","중구","주요거리","신당동 떡볶이 골목","LGU+",37.562938303935,127.014828326139
"371","용산구","광장","선인상가","LGU+",37.5327539845165,126.964304627425
"372","용산구","광장","선인상가","LGU+",37.5327539845165,126.964304627425
"373","용산구","관광명소","이태원거리","LGU+",37.534613294272,126.990975804619
"374","용산구","관광명소","이태원거리","LGU+",37.534613294272,126.990975804619
"375","용산구","광장","나진상가 광장","LGU+",37.5335467355958,126.963877710852
"376","용산구","광장","나진상가 광장","LGU+",37.5335467355958,126.963877710852
"377","용산구","주요거리","신용산역 5번출구앞","LGU+",37.530413287146,126.967800499081
"378","용산구","주요거리","신용산역 6번출구앞","LGU+",37.530413287146,126.967800499081
"379","성동구","광장","왕십리광장","LGU+",37.5628046501418,127.036823440468
"380","성동구","광장","왕십리광장","LGU+",37.5613629383964,127.037197364311
"381","성동구","광장","왕십리광장","LGU+",37.5613629383964,127.037197364311
"382","광진구","공원","뚝섬한강공원","SKT",37.5302691386629,127.066626509048
"383","광진구","공원","뚝섬한강공원","SKT",37.5302691386629,127.066626509048
"384","광진구","공원","뚝섬한강공원","SKT",37.5302691386629,127.066626509048
"385","광진구","공원","뚝섬한강공원","SKT",37.5292757271312,127.073555069666
"386","광진구","공원","뚝섬한강공원","SKT",37.5292757271312,127.073555069666
"387","광진구","공원","뚝섬한강공원","SKT",37.5292757271312,127.073555069666
"388","광진구","공원","아차산생태공원","LGU+",37.5532031935667,127.099841925374
"389","광진구","공원","아차산생태공원","LGU+",37.5532031935667,127.099841925374
"390","광진구","공원","어린이대공원","SKT",37.5491678218378,127.079400286884
"391","광진구","공원","어린이대공원","SKT",37.5491678218378,127.079400286884
"392","광진구","공원","어린이대공원","SKT",37.5491678218378,127.079400286884
"393","광진구","공원","어린이대공원","SKT",37.5491678218378,127.079400286884
"394","광진구","공원","어린이대공원","SKT",37.5491678218378,127.079400286884
"395","광진구","공원","어린이대공원","SKT",37.5491678218378,127.079400286884
"396","광진구","공원","어린이대공원","SKT",37.5491678218378,127.079400286884
"397","광진구","공원","어린이대공원","SKT",37.5491678218378,127.079400286884
"398","광진구","공원","어린이대공원","SKT",37.5491678218378,127.079400286884
"399","광진구","공원","어린이대공원","SKT",37.5490900736242,127.079789487602
"400","광진구","공원","어린이대공원","SKT",37.5495077091029,127.079086050532
"401","광진구","공원","어린이대공원","SKT",37.5495022727903,127.079131310525
"402","광진구","공원","어린이대공원","SKT",37.5489235608166,127.079534692309
"403","광진구","공원","어린이대공원","SKT",37.5488757881127,127.079564064031
"404","광진구","공원","어린이대공원","SKT",37.5491678218378,127.079400286884
"405","광진구","공원","어린이대공원","SKT",37.5506038863471,127.079588534164
"406","광진구","공원","어린이대공원","SKT",37.5506038863471,127.079588534164
"407","광진구","공원","어린이대공원","SKT",37.5509201867866,127.079514180617
"408","광진구","공원","어린이대공원","SKT",37.5509201867866,127.079514180617
"409","광진구","공원","어린이대공원","SKT",37.5512959201506,127.080816000885
"410","광진구","공원","어린이대공원","SKT",37.5512815452286,127.080756006838
"411","광진구","공원","어린이대공원","SKT",37.5513176098857,127.080719832282
"412","광진구","공원","어린이대공원","SKT",37.5484185646625,127.082792109917
"413","광진구","공원","어린이대공원","SKT",37.5484185646625,127.082792109917
"414","광진구","공원","어린이대공원","SKT",37.5484637239432,127.082635995244
"415","광진구","공원","어린이대공원","SKT",37.5470328532583,127.080144882334
"416","광진구","공원","어린이대공원","SKT",37.5470328532583,127.080144882334
"417","광진구","공원","어린이대공원","SKT",37.5470328532583,127.080144882334
"418","광진구","공원","어린이대공원","SKT",37.55091935046,127.080746562732
"419","광진구","공원","어린이대공원","SKT",37.55091935046,127.080746562732
"420","광진구","공원","어린이대공원","SKT",37.55091935046,127.080746562732
"421","광진구","공원","어린이대공원","SKT",37.549446361663,127.080536751483
"422","광진구","공원","어린이대공원","SKT",37.549446361663,127.080536751483
"423","광진구","공원","어린이대공원","SKT",37.549446361663,127.080536751483
"424","광진구","공원","어린이대공원","SKT",37.5499543874453,127.078057852404
"425","광진구","공원","어린이대공원","SKT",37.5499543874453,127.078057852404
"426","광진구","공원","어린이대공원","SKT",37.5499543874453,127.078057852404
"427","광진구","공원","어린이대공원","SKT",37.5507935762719,127.077512134368
"428","광진구","공원","어린이대공원","SKT",37.5507935762719,127.077512134368
"429","광진구","공원","어린이대공원","SKT",37.5507935762719,127.077512134368
"430","광진구","공원","어린이대공원","SKT",37.5507935762719,127.077512134368
"431","광진구","공원","어린이대공원","SKT",37.5507935762719,127.077512134368
"432","광진구","공원","어린이대공원","SKT",37.5507935762719,127.077512134368
"433","광진구","공원","어린이대공원","SKT",37.5507935762719,127.077512134368
"434","광진구","공원","어린이대공원","SKT",37.5507935762719,127.077512134368
"435","광진구","공원","어린이대공원","SKT",37.5507935762719,127.077512134368
"436","광진구","공원","어린이대공원","SKT",37.5507935762719,127.077512134368
"437","광진구","공원","어린이대공원","SKT",37.5507935762719,127.077512134368
"438","광진구","공원","어린이대공원","SKT",37.5507935762719,127.077512134368
"439","광진구","공원","어린이대공원","SKT",37.5507935762719,127.077512134368
"440","광진구","공원","어린이대공원","SKT",37.5507935762719,127.077512134368
"441","광진구","공원","어린이대공원","SKT",37.5507935762719,127.077512134368
"442","광진구","공원","어린이대공원","SKT",37.5507935762719,127.077512134368
"443","광진구","공원","어린이대공원","SKT",37.5507935762719,127.077512134368
"444","광진구","공원","어린이대공원","SKT",37.5507935762719,127.077512134368
"445","광진구","공원","어린이대공원","SKT",37.5507935762719,127.077512134368
"446","광진구","공원","어린이대공원","SKT",37.5507935762719,127.077512134368
"447","광진구","공원","어린이대공원","SKT",37.5478000608873,127.080795252282
"448","광진구","공원","어린이대공원","SKT",37.5478000608873,127.080795252282
"449","광진구","공원","어린이대공원","SKT",37.5478000608873,127.080795252282
"450","광진구","공원","어린이대공원","SKT",37.5487575197371,127.079915875919
"451","광진구","공원","어린이대공원","SKT",37.5487575197371,127.079915875919
"452","광진구","공원","어린이대공원","SKT",37.5487575197371,127.079915875919
"453","광진구","공원","어린이대공원","SKT",37.5487575197371,127.079915875919
"454","광진구","공원","어린이대공원","SKT",37.5487575197371,127.079915875919
"455","광진구","공원","어린이대공원","SKT",37.5493473075154,127.081766738736
"456","광진구","공원","어린이대공원","SKT",37.5493473075154,127.081766738736
"457","광진구","공원","어린이대공원","SKT",37.5493473075154,127.081766738736
"458","광진구","공원","어린이대공원","SKT",37.5491830989857,127.078109103455
"459","광진구","공원","어린이대공원","SKT",37.5491830989857,127.078109103455
"460","광진구","공원","어린이대공원","SKT",37.5491830989857,127.078109103455
"461","광진구","공원","어린이대공원","SKT",37.5491830989857,127.078109103455
"462","광진구","공원","어린이대공원","SKT",37.5523553052094,127.081091012932
"463","광진구","공원","어린이대공원","SKT",37.5523553052094,127.081091012932
"464","광진구","공원","어린이대공원","SKT",37.5523553052094,127.081091012932
"465","광진구","공원","어린이대공원","SKT",37.5523553052094,127.081091012932
"466","광진구","공원","어린이대공원","SKT",37.5491397809597,127.07684275539
"467","광진구","공원","어린이대공원","SKT",37.5491397809597,127.07684275539
"468","광진구","공원","어린이대공원","SKT",37.5491397809597,127.07684275539
"469","광진구","공원","어린이대공원","SKT",37.5478474454521,127.083907253955
"470","광진구","공원","어린이대공원","SKT",37.5478474454521,127.083907253955
"471","광진구","공원","어린이대공원","SKT",37.5478474454521,127.083907253955
"472","광진구","공원","어린이대공원","SKT",37.5478474454521,127.083907253955
"473","광진구","공원","어린이대공원","SKT",37.5498811032528,127.082480260797
"474","광진구","공원","어린이대공원","SKT",37.5498811032528,127.082480260797
"475","광진구","공원","어린이대공원","SKT",37.5498811032528,127.082480260797
"476","광진구","공원","어린이대공원","SKT",37.5494163029967,127.082315660521
"477","광진구","공원","어린이대공원","SKT",37.5494163029967,127.082315660521
"478","광진구","공원","어린이대공원","SKT",37.5494163029967,127.082315660521
"479","중랑구","공원","면목역공원","LGU+",37.5885992647142,127.086683930347
"480","중랑구","공원","봉수대공원","LGU+",37.6065442309364,127.091549615466
"481","중랑구","공원","용마폭포공원","LGU+",37.5743840743699,127.090574050697
"482","중랑구","공원","용마폭포공원","LGU+",37.5738743322114,127.090285902283
"483","중랑구","공원","용마폭포공원","LGU+",37.5732464850116,127.0912677225
"484","중랑구","공원","중랑캠핑숲","LGU+",37.604839852618,127.11018136921
"485","중랑구","공원","중랑캠핑숲","LGU+",37.604839852618,127.11018136921
"486","중랑구","공원","중랑캠핑숲","LGU+",37.6062597306105,127.10930011162
"487","중랑구","공원","중랑캠핑숲","LGU+",37.6046978731975,127.109776864875
"488","중랑구","공원","중랑캠핑숲","LGU+",37.6070186823487,127.112791630156
"489","중랑구","공원","중랑캠핑숲","LGU+",37.6070186823487,127.112791630156
"490","성북구","주요시장","돈암제일시장","LGU+",37.591718667975,127.015577944131
"491","성북구","주요시장","돈암제일시장","LGU+",37.5917834682766,127.016107866355
"492","성북구","주요거리","성신여대앞 거리(하나로거리)","LGU+",37.591674179527,127.017969314286
"493","성북구","주요거리","성신여대앞 거리(하나로거리)","LGU+",37.5908469844145,127.018514869252
"494","성북구","주요거리","안암역","SKT",37.5880670285621,127.029347331139
"495","성북구","주요거리","안암역","SKT",37.5880670285621,127.029347331139
"496","강북구","주요거리","미아삼거리역","LGU+",37.6133862953174,127.030812683429
"497","강북구","주요거리","미아삼거리역","LGU+",37.6131287369683,127.030332351746
"498","강북구","주요거리","미아삼거리역","LGU+",37.6132883249605,127.029889566239
"499","은평구","공원","서갈현어린이공원","LGU+",37.6214006525941,126.915739425603
"500","은평구","공원","좌월어린이공원","LGU+",37.6174939966047,126.913288199227
"501","은평구","공원","참다래어린이공원","LGU+",37.5953162291002,126.917178605751
"502","은평구","공원","궁말어린이공원 CCTV","LGU+",37.6169862052434,126.908988058742
"503","은평구","공원","궁말어린이공원 CCTV","LGU+",37.6169862052434,126.908988058742
"504","은평구","주요시장","연서시장","LGU+",37.619254712928,126.922627529443
"505","은평구","주요시장","연서시장","LGU+",37.619254712928,126.922627529443
"506","서대문구","주요거리","신촌이대주변","LGU+",37.5584352928947,126.94572894608
"507","서대문구","주요거리","신촌이대주변","LGU+",37.5584352928947,126.94572894608
"508","서대문구","주요거리","신촌이대주변","LGU+",37.5591384424889,126.944589856073
"509","서대문구","주요거리","신촌이대주변","LGU+",37.5591384424889,126.944589856073
"510","서대문구","주요거리","신촌이대주변","LGU+",37.5590304215204,126.942905836057
"511","서대문구","주요거리","신촌이대주변","LGU+",37.5590304215204,126.942905836057
"512","서대문구","주요거리","신촌이대주변","LGU+",37.5565892325827,126.936836987903
"513","서대문구","주요거리","신촌이대주변","LGU+",37.5565892325827,126.936836987903
"514","서대문구","주요거리","신촌이대주변","LGU+",37.5576915888142,126.93597478247
"515","서대문구","주요거리","신촌이대주변","LGU+",37.5576915888142,126.93597478247
"516","마포구","주요거리","신촌이대주변(마포구)","LGU+",37.5548614227772,126.93740657194
"517","마포구","주요거리","신촌이대주변(마포구)","LGU+",37.5548614227772,126.93740657194
"518","서대문구","주요거리","신촌이대주변","LGU+",37.5591808190998,126.940934143285
"519","서대문구","주요거리","신촌이대주변","LGU+",37.5591808190998,126.940934143285
"520","서대문구","주요거리","신촌이대주변","LGU+",37.5582722885366,126.936824249483
"521","서대문구","주요거리","신촌이대주변","LGU+",37.5582722885366,126.936824249483
"522","서대문구","주요거리","신촌이대주변","LGU+",37.5586093688238,126.938737806965
"523","서대문구","주요거리","신촌이대주변","LGU+",37.5586093688238,126.938737806965
"524","서대문구","주요거리","신촌이대주변","LGU+",37.5587546237419,126.944602589916
"525","서대문구","주요거리","신촌이대주변","LGU+",37.5587546237419,126.944602589916
"526","서대문구","주요거리","신촌이대주변","LGU+",37.5587546237419,126.944602589916
"527","마포구","공원","노을공원","LGU+",37.5752778009231,126.869847858263
"528","마포구","공원","노을공원","LGU+",37.5752778009231,126.869847858263
"529","마포구","공원","노을공원","LGU+",37.5736957847007,126.873279466645
"530","마포구","공원","노을공원","LGU+",37.5736957847007,126.873279466645
"531","마포구","공원","노을공원","LGU+",37.5736957847007,126.873279466645
"532","마포구","공원","하늘공원","LGU+",37.5690662249874,126.886308004247
"533","마포구","공원","하늘공원","LGU+",37.5690662249874,126.886308004247
"534","마포구","주요거리","홍대주변","LGU+",37.5528670965312,126.924376779389
"535","마포구","주요거리","홍대주변","LGU+",37.5528670965312,126.924376779389
"536","마포구","주요거리","홍대주변","LGU+",37.5517817366392,126.923509879092
"537","마포구","주요거리","홍대주변","LGU+",37.5517817366392,126.923509879092
"538","영등포구","주요거리","영등포역전거리","LGU+",37.5161385111086,126.906486429303
"539","영등포구","주요거리","영등포역전거리","LGU+",37.5161385111086,126.906486429303
"540","영등포구","주요거리","영등포역전거리","LGU+",37.5162705065538,126.907055228673
"541","영등포구","주요거리","영등포역전거리","LGU+",37.5162705065538,126.907055228673
"542","동작구","공원","보라매공원","SKT",37.4939255247362,126.92191342437
"543","동작구","공원","보라매공원","SKT",37.4940196784741,126.921232581278
"544","동작구","공원","보라매공원","SKT",37.4924385428583,126.918765744814
"545","동작구","공원","보라매공원","SKT",37.49202310795,126.92132400925
"546","동작구","공원","보라매공원","SKT",37.4904881490566,126.916591158501
"547","동작구","공원","보라매공원","SKT",37.4904881490566,126.916591158501
"548","동작구","공원","보라매공원","SKT",37.4915880506167,126.920173342643
"549","동작구","공원","보라매공원","SKT",37.4915880506167,126.920173342643
"550","동작구","주요거리","노량진역 인근","LGU+",37.5141959236498,126.945195441854
"551","동작구","주요거리","노량진역 인근","LGU+",37.5141959236498,126.945195441854
"552","동작구","주요거리","노량진역 인근","LGU+",37.5087823594746,126.940777078318
"553","동작구","주요거리","노량진역 인근","LGU+",37.5087823594746,126.940777078318
"554","동작구","주요거리","노량진역 인근","LGU+",37.5087823594746,126.940777078318
"555","동작구","주요거리","노량진역 인근","LGU+",37.5133925163178,126.942024430208
"556","동작구","주요거리","노량진역 인근","LGU+",37.5133925163178,126.942024430208
"557","관악구","광장","관악산입구 만남의 광장","LGU+",37.4678956737832,126.946765489902
"558","관악구","광장","관악산입구 만남의 광장","LGU+",37.4678956737832,126.946765489902
"559","관악구","주요거리","구로디지털단지역","LGU+",37.4839092248238,126.902755884704
"560","관악구","주요거리","구로디지털단지역","LGU+",37.4839092248238,126.902755884704
"561","관악구","주요거리","서울대입구역","LGU+",37.4794570615954,126.952215760705
"562","관악구","주요거리","서울대입구역","LGU+",37.4794570615954,126.952215760705
"563","관악구","주요거리","서울대입구역","LGU+",37.4831701067692,126.954465635808
"564","관악구","주요거리","신대방역","LGU+",37.4859917698289,126.913595320468
"565","관악구","주요거리","신대방역","LGU+",37.4859917698289,126.913595320468
"566","관악구","주요거리","신림동고시촌","LGU+",37.4691508424564,126.937675933234
"567","관악구","주요거리","신림동고시촌","LGU+",37.4691508960723,126.937777671992
"568","관악구","주요거리","신림동고시촌","LGU+",37.4691508960723,126.937777671992
"569","관악구","주요거리","신림동고시촌","LGU+",37.4691508960723,126.937777671992
"570","관악구","주요거리","신림역","LGU+",37.4851006231113,126.929838440223
"571","관악구","주요거리","신림역","LGU+",37.4851006231113,126.929838440223
"572","관악구","주요거리","신림역","LGU+",37.4835084266027,126.929645457768
"573","관악구","주요거리","신림역","LGU+",37.4835084266027,126.929645457768
"574","관악구","주요거리","사당역","LGU+",37.4757675075174,126.981340586377
"575","관악구","주요거리","사당역","LGU+",37.4757675075174,126.981340586377
"576","관악구","주요거리","사당역","LGU+",37.4758024544281,126.980159172289
"577","관악구","주요거리","사당역","LGU+",37.4758024544281,126.980159172289
"578","서초구","주요거리","서래마을","LGU+",37.4994069225297,126.999051185581
"579","서초구","주요거리","서래마을","LGU+",37.4994069225297,126.999051185581
"580","서초구","주요거리","서래마을","LGU+",37.4978869158199,126.998258468905
"581","서초구","주요거리","서래마을","LGU+",37.4978869158199,126.998258468905
"582","서초구","주요거리","서래마을","LGU+",37.4968922119863,126.998863496406
"583","서초구","주요거리","서래마을","LGU+",37.4968922119863,126.998863496406
"584","서초구","주요거리","서래마을","LGU+",37.4961470717754,126.998235892546
"585","서초구","주요거리","서래마을","LGU+",37.4961470717754,126.998235892546
"586","서초구","주요거리","서래마을","LGU+",37.4977166353907,126.999151853665
"587","서초구","주요거리","서래마을","LGU+",37.4977166353907,126.999151853665
"588","서초구","주요거리","사당역 거리","LGU+",37.4770542661974,126.982095474081
"589","서초구","주요거리","사당역 거리","LGU+",37.4770542661974,126.982095474081
"590","서초구","주요거리","사당역 거리","LGU+",37.4778474180769,126.983927926328
"591","서초구","주요거리","사당역 거리","LGU+",37.4778474180769,126.983927926328
"592","서초구","주요거리","사당역 거리","LGU+",37.4778474180769,126.983927926328
"593","서초구","주요거리","사당역 거리","LGU+",37.4778474180769,126.983927926328
"594","서초구","주요거리","강남역일대(교보거리)","LGU+",37.5036881415155,127.022625822387
"595","서초구","주요거리","강남역일대(교보거리)","LGU+",37.5036881415155,127.022625822387
"596","서초구","주요거리","강남역일대(교보거리)","LGU+",37.5020003088299,127.023890819659
"597","서초구","주요거리","강남역일대(교보거리)","LGU+",37.5020003088299,127.023890819659
"598","서초구","주요거리","강남역일대(교보거리)","LGU+",37.5016631469472,127.024792056484
"599","서초구","주요거리","강남역일대(교보거리)","LGU+",37.5016631469472,127.024792056484
"600","서초구","주요거리","강남역일대(교보거리)","LGU+",37.5010073359556,127.024207158466
"601","서초구","주요거리","강남역일대(교보거리)","LGU+",37.5010073359556,127.024207158466
"602","서초구","주요거리","강남역일대(교보거리)","LGU+",37.5000675277608,127.024492972064
"603","서초구","주요거리","강남역일대(교보거리)","LGU+",37.5000675277608,127.024492972064
"604","서초구","주요거리","강남역일대(교보거리)","LGU+",37.5016666778357,127.025138119576
"605","서초구","주요거리","강남역일대(교보거리)","LGU+",37.5016666778357,127.025138119576
"606","서초구","주요거리","강남역일대(교보거리)","LGU+",37.4994454071748,127.026469560772
"607","서초구","주요거리","강남역일대(교보거리)","LGU+",37.4994454071748,127.026469560772
"608","서초구","주요거리","강남역일대(교보거리)","LGU+",37.4988701123796,127.024387409198
"609","서초구","주요거리","강남역일대(교보거리)","LGU+",37.4988701123796,127.024387409198
"610","송파구","주요거리","신천성당","LGU+",37.5108053199801,127.082852342239
"611","송파구","주요거리","신천성당","LGU+",37.5108053199801,127.082852342239
"612","송파구","주요거리","잠실본동주민센터 부근","LGU+",37.5064602310607,127.083484289223
"613","송파구","주요거리","잠실본동주민센터 부근","LGU+",37.5064602310607,127.083484289223
"614","송파구","주요시장","새마을시장","LGU+",37.5090462313645,127.084586532609
"615","송파구","주요시장","새마을시장","LGU+",37.5090462313645,127.084586532609
"616","용산구","주요거리","숙명여대입구","SKT",37.5447800589911,126.969001708499
"617","용산구","주요거리","숙명여대입구","SKT",37.5449101686865,126.967025926016
"618","용산구","주요거리","숙명여대입구","SKT",37.5448092523608,126.967010128447
"619","용산구","주요거리","숙명여대입구","SKT",37.5440703428165,126.966689090574
"620","은평구","공원","녹번초교","SKT",37.6038190209418,126.926945756565
"621","은평구","공원","대조어린이공원","SKT",37.6152244641044,126.91973554849
"622","은평구","공원","물빛공원","SKT",37.6188279773709,126.920418086983
"623","은평구","공원","백련근린공원","SKT",37.5944383411584,126.926198535741
"624","은평구","공원","블광생태공원","SKT",37.6116213016739,126.940915345475
"625","은평구","공원","신흥어린이공원","SKT",37.5959412448511,126.911827576919
"626","은평구","공원","역마을어린이공원","SKT",37.6011449283773,126.918747348187
"627","은평구","공원","은평평화공원","SKT",37.6058644606073,126.922997005039
"628","은평구","공원","포수동어린이공원","SKT",37.5977684108926,126.919324001247
"629","은평구","주요거리","불광역 거리","SKT",37.6106106209027,126.931349336545
"630","서대문구","공원","불광천","SKT",37.586395775464,126.912553256632
"631","서대문구","공원","불광천","SKT",37.586366926108,126.912529514155
"632","은평구","주요거리","역촌동걷고싶은거리","SKT",37.6055440770643,126.918188774861
"633","은평구","주요거리","역촌동걷고싶은거리","SKT",37.6015215678001,126.918784308788
"634","은평구","주요거리","연신내로데오거리","SKT",37.6197797971147,126.919644565754
"635","은평구","주요거리","연신내로데오거리","SKT",37.6196374257522,126.919622064872
"636","은평구","주요거리","연신내로데오거리","SKT",37.6194929929866,126.917914103642
"637","은평구","주요거리","연신내로데오거리","SKT",37.6179732566768,126.918245384404
"638","은평구","주요거리","연신내로데오거리","SKT",37.6179138636728,126.918349655943
"639","은평구","주요거리","연신내로데오거리","SKT",37.6175699949283,126.921459222736
"640","은평구","주요거리","연신내로데오거리","SKT",37.6174573963878,126.921496719369
"641","중구","공공청사","서울시청 서소문청사","서울시",37.5644899654027,126.975282215034
"642","중구","공공청사","서울시의회본관","서울시",37.5675293095871,126.976681391254
"643","중구","공공청사","서울시의회별관","서울시",37.5645853521245,126.974720775112
"644","중구","공공청사","서울시립미술관","서울시",37.5641436414808,126.973702245777
"645","종로구","공공청사","서울역사박물관","서울시",37.5704751128862,126.970618822221
"646","중구","공원","남산공원","서울시",37.5515986804845,126.988078931445
"647","용산구","공원","남산공원","서울시",37.551422048892,126.987728141036
"648","용산구","공원","남산공원","서울시",37.5510941007216,126.987875311615
"649","마포구","공원","평화의공원","서울시",37.5631246561482,126.897685327259
"650","마포구","공원","평화의공원","서울시",37.5627085914033,126.897911133001
"651","마포구","공원","평화의공원","서울시",37.562909790643,126.897192136249
"652","마포구","공원","평화의공원","서울시",37.562978888068,126.893822532715
"653","마포구","공원","평화의공원","서울시",37.5620507299079,126.895695901664
"654","마포구","공원","평화의공원","서울시",37.561489526682,126.894812729109
"655","마포구","공원","평화의공원","서울시",37.5615822721065,126.891758932515
"656","마포구","공원","평화의공원","서울시",37.5640058964978,126.896726566332
"657","마포구","공원","평화의공원","서울시",37.5642071813617,126.895094138262
"658","마포구","공원","평화의공원","서울시",37.5638121808345,126.892683831176
"659","마포구","공원","평화의공원","서울시",37.5619382223026,126.889871654888
"660","마포구","공원","평화의공원","서울시",37.5626556023387,126.893014856251
"661","마포구","공원","평화의공원","서울시",37.5647883950092,126.892173087333
"662","마포구","공원","평화의공원","서울시",37.5635006601975,126.89096159491
"663","중구","공공청사","서울시 신청사","서울시",37.5666061186645,126.978415753464
"664","중구","공공청사","서울도서관","서울시",37.5663032832513,126.977871398008
"665","강남구","공공청사","아동복지센터","서울시",37.4797691730074,127.087940770717
"666","서초구","공공청사","농업기술센터","서울시",37.4657202051952,127.089697877561
"667","서초구","공공청사","데이터센터","서울시",37.4795845237393,127.021926632751
"668","서초구","공공청사","인재개발원","서울시",37.4796561479662,127.019383957814
"669","서초구","공공청사","품질시험소","서울시",37.4671456118242,127.028353851152
"670","성동구","공공청사","청계천문화관","서울시",37.5711538862697,127.034817169957
"671","은평구","공공청사","서북병원","서울시",37.6041048471076,126.904528233301
"672","은평구","공공청사","은평병원","서울시",37.5940638077157,126.923801788639
"673","중구","공공청사","동대문역사관","서울시",37.5671652554241,127.011424376192
"674","서초구","공공청사","보건환경연구원","서울시",37.4646838315075,127.032684476388
"675","중구","공공청사","서울광장","서울시",37.5661969119244,126.977586191638
"676","중구","공공청사","서울광장","서울시",37.5661934196808,126.978182701941
"677","중구","공공청사","서울시 을지로청사","서울시",37.5662109565426,126.980575525798
"678","성동구","공공청사","한강사업본부","서울시",37.538735409439,127.042129561091
"679","강동구","공공청사","광나루 한강안내센터","서울시",37.5499214018211,127.122256655487
"680","강서구","공공청사","강서 한강안내센터","서울시",37.596421454076,126.804027011672
"681","광진구","공공청사","뚝섬 한강안내센터","서울시",37.5293799839108,127.073970373596
"682","마포구","공공청사","망원 한강안내센터","서울시",37.5525170119692,126.899542219596
"683","서초구","공공청사","반포 한강안내센터","서울시",37.5072138526805,126.991760628374
"684","서초구","공공청사","잠원 한강안내센터","서울시",37.52075288653,127.012299639326
"685","송파구","공공청사","잠실 한강안내센터","서울시",37.5175861254092,127.086822296362
"686","영등포구","공공청사","양화 한강안내센터","서울시",37.5382557738184,126.902494133556
"687","서초구","공공청사","어린이병원","서울시",37.455736525218,127.068913472222
